IRIDIUM 155             
1 43573U 18061E   20301.87002826  .00000073  00000-0  18880-4 0  9996
2 43573  86.4030 196.8856 0001565  90.3655 269.7720 14.34217549118332
IRIDIUM 154             
1 43574U 18061F   20301.78122069  .00000085  00000-0  23322-4 0  9999
2 43574  86.4035 196.9585 0002245  76.9615 283.1831 14.34220494118370
IRIDIUM 163             
1 43575U 18061G   20301.76221151  .00000085  00000-0  23313-4 0  9990
2 43575  86.4032 196.9444 0002562  91.3600 268.7889 14.34219525118341
IRIDIUM 156             
1 43576U 18061H   20301.80660040  .00000079  00000-0  21311-4 0  9999
2 43576  86.4033 196.9306 0002062  93.7654 266.3777 14.34218991118335
IRIDIUM 164             
1 43577U 18061J   20301.78757407  .00000082  00000-0  22291-4 0  9993
2 43577  86.4034 196.9477 0002284  81.1231 279.0223 14.34216387118383
IRIDIUM 159             
1 43578U 18061K   20301.75585568  .00000077  00000-0  20517-4 0  9991
2 43578  86.4032 196.9409 0002195  79.6511 280.4932 14.34220287118344
IRIDIUM 180             
1 43922U 19002A   20301.89488720  .00000014  00000-0 -19814-5 0  9998
2 43922  86.3948 133.7985 0002925  76.0665 284.0856 14.34218998 93974
IRIDIUM 176             
1 43923U 19002B   20301.68901582  .00000067  00000-0  67594-5 0  9997
2 43923  86.6080 133.9154 0002409  85.2010 274.9483 14.72253323 96383
IRIDIUM 168             
1 43924U 19002C   20301.67923344  .00000005  00000-0 -52433-5 0  9996
2 43924  86.3950 133.9076 0002119  81.0591 279.0845 14.34218880 93928
IRIDIUM 173             
1 43925U 19002D   20301.59679311  .00000008  00000-0 -43619-5 0  9999
2 43925  86.3947 133.9147 0002098  84.4635 275.6800 14.34217650 93901
IRIDIUM 169             
1 43926U 19002E   20302.37516229  .00000119  00000-0  32505-4 0  9998
2 43926  86.4256 165.1608 0003011 281.3958  78.6902 14.38602645 94379
IRIDIUM 172             
1 43927U 19002F   20301.66020262  .00000011  00000-0 -31393-5 0  9994
2 43927  86.3947 133.8897 0002190  82.7783 277.3662 14.34217602 93915
IRIDIUM 175             
1 43928U 19002G   20301.68283073  .00000066  00000-0  65734-5 0  9993
2 43928  86.6064 133.7838 0002588 106.6299 253.5203 14.72253329 96370
IRIDIUM 171             
1 43929U 19002H   20301.92024608  .00000012  00000-0 -26918-5 0  9991
2 43929  86.3957 133.8586 0002073  80.7052 279.4378 14.34219080 93942
IRIDIUM 170             
1 43930U 19002J   20301.62721187  .00000055  00000-0  47721-5 0  9997
2 43930  86.6080 133.9481 0002597  90.5856 269.5658 14.72251970 96389
IRIDIUM 167             
1 43931U 19002K   20301.91390901  .00000012  00000-0 -28879-5 0  9993
2 43931  86.3947 133.7879 0002697  75.3064 284.8430 14.34217492 93947
